[{"OBJECT_NAME":"STARLINK-5143","OBJECT_ID":"2022-136AQ","EPOCH":"2026-03-09T22:33:01.957536","MEAN_MOTION":15.08836554,"ECCENTRICITY":0.00014085,"INCLINATION":53.2206,"RA_OF_ASC_NODE":332.8783,"ARG_OF_PERICENTER":96.5484,"MEAN_ANOMALY":263.5669,"EPHEMERIS_TYPE":0,"CLASSIFICATION_TYPE":"U","NORAD_CAT_ID":54089,"ELEMENT_SET_NO":999,"REV_AT_EPOCH":18702,"BSTAR":6.3784766e-5,"MEAN_MOTION_DOT":7.27e-6,"MEAN_MOTION_DDOT":0},{"OBJECT_NAME":"FENGYUN 1C DEB","OBJECT_ID":"1999-025EEQ","EPOCH":"2026-03-04T07:32:44.635200","MEAN_MOTION":14.50858155,"ECCENTRICITY":0.02656951,"INCLINATION":98.9728,"RA_OF_ASC_NODE":96.1117,"ARG_OF_PERICENTER":260.4903,"MEAN_ANOMALY":96.6174,"EPHEMERIS_TYPE":0,"CLASSIFICATION_TYPE":"U","NORAD_CAT_ID":37056,"ELEMENT_SET_NO":999,"REV_AT_EPOCH":66594,"BSTAR":0.00041717467,"MEAN_MOTION_DOT":2.532e-5,"MEAN_MOTION_DDOT":0}]
